TISAT 1                 
1 36799U 10035E   26068.75703561  .00024554  00000+0  91005-3 0  9996
2 36799  98.0645   6.8512 0001343 159.3030 200.8262 15.27628633852505
STARLINK-31873          
1 59790U 24093J   26068.47070891 -.00000533  00000+0 -98513-5 0  9999
2 59790  43.0001 209.9834 0001378 261.3133  98.7563 15.27574181102667
